QIANFAN-73              
1 63159U 25046A   25214.17737392  .00000142  00000+0  20160-3 0  9992
2 63159  88.9858 333.6822 0016460 142.6265 217.6035 13.50958646 29510
QIANFAN-74              
1 63160U 25046B   25213.86470322  .00000159  00000+0  22732-3 0  9991
2 63160  88.9858 333.6029 0001958 102.3368 257.8002 13.50963098 29533
QIANFAN-75              
1 63161U 25046C   25213.77830579  .00000162  00000+0  23179-3 0  9996
2 63161  88.9859 333.8434 0017538 146.8146 213.4109 13.50959524 29394
QIANFAN-76              
1 63162U 25046D   25213.84808371  .00000180  00000+0  26065-3 0  9997
2 63162  88.9859 333.8175 0015107 146.4577 213.7534 13.50955606 29416
QIANFAN-77              
1 63163U 25046E   25214.15887473  .00000347  00000+0  24352-3 0  9995
2 63163  88.9856 332.8793 0016645 130.5621 229.7008 13.96005725 29951
QIANFAN-78              
1 63164U 25046F   25213.88936840  .00000167  00000+0  24027-3 0  9997
2 63164  88.9858 333.6787 0016417 148.9546 211.2579 13.50958917 29490
QIANFAN-79              
1 63165U 25046G   25213.84402346  .00000177  00000+0  25542-3 0  9997
2 63165  88.9862 333.7856 0016137 147.4429 212.7720 13.50961047 29433
QIANFAN-80              
1 63166U 25046H   25213.86059609  .00000146  00000+0  20696-3 0  9991
2 63166  88.9859 333.4946 0015031 150.9834 209.2156 13.50961248 29592
